ONEWEB-0531             
1 54146U 22138AK  25362.85548596  .00000046  00000+0  81623-4 0  9997
2 54146  87.9222 308.4080 0001273 109.4842 250.6429 13.20772031156822
ONEWEB-0535             
1 54147U 22138AL  25362.41570989  .00000054  00000+0  10145-3 0  9990
2 54147  87.9218 338.9260 0001813  96.3508 263.7831 13.19724338154318
ONEWEB-0536             
1 54148U 22138AM  25362.76710274  .00000055  00000+0  10362-3 0  9994
2 54148  87.9213 308.4672 0001095 112.0119 248.1130 13.20771069156809
ONEWEB-0527             
1 54642U 22166A   25362.85381530  .00000009  00000+0 -90427-5 0  9995
2 54642  87.9228 277.9752 0001663  74.8978 285.2340 13.21825768149031
ONEWEB-0528             
1 54643U 22166B   25362.78470953  .00000062  00000+0  11745-3 0  9998
2 54643  87.9226 277.9928 0001699  71.6977 288.4342 13.21825617149038
ONEWEB-0539             
1 54644U 22166C   25362.82253987 -.00000037  00000+0 -12024-3 0  9995
2 54644  87.9225 277.9507 0001910  73.9326 286.2018 13.21828080149033
ONEWEB-0540             
1 54645U 22166D   25362.82927644 -.00000082  00000+0 -22984-3 0  9990
2 54645  87.9222 277.9870 0001818  78.7056 281.4282 13.21825760149025
ONEWEB-0542             
1 54646U 22166E   25362.83242610 -.00000055  00000+0 -16456-3 0  9992
2 54646  87.9222 277.9446 0002060  80.0599 280.0767 13.21827077149030
